{
    "links": {
        "self": "http://www.neowsapp.com/rest/v1/neo/3758260?api_key=iIulBulltgU6a56xZRHN4H3l9WmuAYTsLGpBGhQ2"
    },
    "id": "3758260",
    "neo_reference_id": "3758260",
    "name": "(2016 QS44)",
    "designation": "2016 QS44",
    "nasa_jpl_url": "http://ssd.jpl.nasa.gov/sbdb.cgi?sstr=3758260",
    "absolute_magnitude_h": 24.4,
    "estimated_diameter": {
        "kilometers": {
            "estimated_diameter_min": 0.0350392641,
            "estimated_diameter_max": 0.0783501764
        },
        "meters": {
            "estimated_diameter_min": 35.0392641108,
            "estimated_diameter_max": 78.3501764334
        },
        "miles": {
            "estimated_diameter_min": 0.0217723826,
            "estimated_diameter_max": 0.0486845275
        },
        "feet": {
            "estimated_diameter_min": 114.9582192654,
            "estimated_diameter_max": 257.0543928497
        }
    },
    "is_potentially_hazardous_asteroid": false,
    "close_approach_data": [
        {
            "close_approach_date": "2016-09-10",
            "close_approach_date_full": "2016-Sep-10 05:03",
            "epoch_date_close_approach": 1473483780000,
            "relative_velocity": {
                "kilometers_per_second": "17.3865998415",
                "kilometers_per_hour": "62591.7594294659",
                "miles_per_hour": "38892.0851854923"
            },
            "miss_distance": {
                "astronomical": "0.0204589966",
                "lunar": "7.9585496774",
                "kilometers": "3060622.313697242",
                "miles": "1901782.5189042596"
            },
            "orbiting_body": "Earth"
        },
        {
            "close_approach_date": "2048-09-02",
            "close_approach_date_full": "2048-Sep-02 20:28",
            "epoch_date_close_approach": 2482691280000,
            "relative_velocity": {
                "kilometers_per_second": "21.3942089046",
                "kilometers_per_hour": "77019.1520566781",
                "miles_per_hour": "47856.7058987731"
            },
            "miss_distance": {
                "astronomical": "0.1498681539",
                "lunar": "58.2987118671",
                "kilometers": "22419956.604272193",
                "miles": "13931115.0395065434"
            },
            "orbiting_body": "Earth"
        },
        {
            "close_approach_date": "2144-08-29",
            "close_approach_date_full": "2144-Aug-29 14:02",
            "epoch_date_close_approach": 5511765720000,
            "relative_velocity": {
                "kilometers_per_second": "24.7744132302",
                "kilometers_per_hour": "89187.887628774",
                "miles_per_hour": "55417.8849546679"
            },
            "miss_distance": {
                "astronomical": "0.2650921985",
                "lunar": "103.1208652165",
                "kilometers": "39657228.249217195",
                "miles": "24641858.975879491"
            },
            "orbiting_body": "Earth"
        }
    ],
    "orbital_data": {
        "orbit_id": "6",
        "orbit_determination_date": "2017-04-06 08:24:19",
        "first_observation_date": "2016-08-30",
        "last_observation_date": "2016-09-09",
        "data_arc_in_days": 10,
        "observations_used": 45,
        "orbit_uncertainty": "8",
        "minimum_orbit_intersection": ".0167252",
        "jupiter_tisserand_invariant": "4.285",
        "epoch_osculation": "2457632.5",
        "eccentricity": ".5797522328280971",
        "semi_major_axis": "1.52661268166506",
        "inclination": "6.693486263006329",
        "ascending_node_longitude": "176.3527972887194",
        "orbital_period": "688.9563788919874",
        "perihelion_distance": ".6415555708060527",
        "perihelion_argument": "260.9665871802789",
        "aphelion_distance": "2.411669792524068",
        "perihelion_time": "2457693.325171216440",
        "mean_anomaly": "328.2170565382756",
        "mean_motion": ".5225294532855175",
        "equinox": "J2000",
        "orbit_class": {
            "orbit_class_type": "APO",
            "orbit_class_description": "Near-Earth asteroid orbits which cross the Earth’s orbit similar to that of 1862 Apollo",
            "orbit_class_range": "a (semi-major axis) > 1.0 AU; q (perihelion) < 1.017 AU"
        }
    },
    "is_sentry_object": false
}